STARLINK-1513_new
1 15786C 20038BJ  21326.15451302 -.00018248  00000-0 -12226-2 0  3262
2 15786  53.0537  38.0468 0001358  73.5195 357.1908 15.06418496    19
STARLINK-1513_old
1 25786C 20038BJ  21325.15901999  .00005597  00000-0  37493-3 0  3257
2 25786  53.0534  42.5159 0001283  76.3373 352.7661 15.06399542    16
